NORAD_CAT_ID,OBJECT_NAME,OBJECT_TYPE,EPOCH,MEAN_MOTION,ECCENTRICITY,INCLINATION,RA_OF_ASC_NODE,ARG_OF_PERICENTER,MEAN_ANOMALY,BSTAR,MEAN_MOTION_DOT,MEAN_MOTION_DDOT,TLE_LINE0,TLE_LINE1,TLE_LINE2,SEMIMAJOR_AXIS,PERIOD,APOGEE,PERIGEE,DECAYED
52701.0,STARLINK-4003,PAYLOAD,2023-05-16 20:07:27,15.08838437,0.000131,53.2188,68.3202,107.4683,252.6453,1.3108e-05,-7.9e-07,0.0,0 STARLINK-4003,1 52701U 22053AX  23136.83851716 -.00000079  00000-0  13108-4 0  9995,2 52701  53.2188  68.3202 0001310 107.4683 252.6453 15.08838437 55711,6917.885,95.438,540.656,538.844,0.0
52701.0,STARLINK-4003,PAYLOAD,2023-05-17 05:39:46,15.08842194,0.0001156,53.2181,66.5373,95.0109,265.1015,5.6321e-05,6.09e-06,0.0,0 STARLINK-4003,1 52701U 22053AX  23137.23595372  .00000609  00000-0  56321-4 0  9995,2 52701  53.2181  66.5373 0001156  95.0109 265.1015 15.08842194 56209,6917.874,95.437,540.538,538.939,0.0
52701.0,STARLINK-4003,PAYLOAD,2023-05-18 02:19:48,15.08809407,0.0001236,53.2178,62.671,94.3053,265.8081,0.00040099,6.094e-05,0.0,0 STARLINK-4003,1 52701U 22053AX  23138.09708443  .00006094  00000-0  40099-3 0  9993,2 52701  53.2178  62.6710 0001236  94.3053 265.8081 15.08809407 55902,6917.974,95.439,540.694,538.984,0.0
52701.0,STARLINK-4003,PAYLOAD,2023-05-18 05:30:33,15.08841418,0.0001255,53.2178,62.0763,115.8111,244.301,1.8637e-06,-2.58e-06,0.0,0 STARLINK-4003,1 52701U 22053AX  23138.22955695 -.00000258  00000-0  18637-5 0  9993,2 52701  53.2178  62.0763 0001255 115.8111 244.3010 15.08841418 55923,6917.876,95.437,540.609,538.873,0.0
52701.0,STARLINK-4003,PAYLOAD,2023-05-19 00:35:11,15.08835274,0.0001237,53.218,58.5086,90.9902,269.1232,2.0219e-06,-2.56e-06,0.0,0 STARLINK-4003,1 52701U 22053AX  23139.02444301 -.00000256  00000-0  20219-5 0  9996,2 52701  53.2180  58.5086 0001237  90.9902 269.1232 15.08835274 56043,6917.895,95.438,540.616,538.904,0.0
52701.0,STARLINK-4003,PAYLOAD,2023-05-19 18:04:26,15.08835697,0.0001221,53.2187,55.2377,86.4815,273.6317,5.9358e-05,6.57e-06,0.0,0 STARLINK-4003,1 52701U 22053AX  23139.75308267  .00000657  00000-0  59358-4 0  9995,2 52701  53.2187  55.2377 0001221  86.4815 273.6317 15.08835697 56585,6917.894,95.438,540.603,538.914,0.0
52701.0,STARLINK-4003,PAYLOAD,2023-05-20 00:25:58,15.08842537,0.0001063,53.2174,54.0487,98.7748,261.3365,3.1951e-05,2.21e-06,0.0,0 STARLINK-4003,1 52701U 22053AX  23140.01803880  .00000221  00000-0  31951-4 0  9993,2 52701  53.2174  54.0487 0001063  98.7748 261.3365 15.08842537 56190,6917.873,95.437,540.473,539.002,0.0
52701.0,STARLINK-4003,PAYLOAD,2023-05-21 00:16:44,15.0885791,0.0001136,53.218,49.5886,87.2378,272.8744,0.00010387,1.366e-05,0.0,0 STARLINK-4003,1 52701U 22053AX  23141.01162472  .00001366  00000-0  10387-3 0  9999,2 52701  53.2180  49.5886 0001136  87.2378 272.8744 15.08857910 56348,6917.826,95.436,540.477,538.905,0.0
52701.0,STARLINK-4003,PAYLOAD,2023-05-21 20:56:47,15.0883462,0.0001265,53.2183,45.7211,89.7817,270.332,-7.6648e-05,-1.507e-05,0.0,0 STARLINK-4003,1 52701U 22053AX  23141.87276715 -.00001507  00000-0 -76648-4 0  9991,2 52701  53.2183  45.7211 0001265  89.7817 270.3320 15.08834620 56907,6917.897,95.438,540.637,538.887,0.0
52701.0,STARLINK-4003,PAYLOAD,2023-05-22 00:07:33,15.08830507,0.0001085,53.2184,45.1266,104.5061,255.6052,-0.00010862,-2.016e-05,0.0,0 STARLINK-4003,1 52701U 22053AX  23142.00524961 -.00002016  00000-0 -10862-3 0  9997,2 52701  53.2184  45.1266 0001085 104.5061 255.6052 15.08830507 56491,6917.909,95.438,540.525,539.024,0.0
52701.0,STARLINK-4003,PAYLOAD,2023-05-22 20:47:33,15.08846905,0.000103,53.218,41.2629,96.1839,263.9271,-6.4193e-05,-1.309e-05,0.0,0 STARLINK-4003,1 52701U 22053AX  23142.86635790 -.00001309  00000-0 -64193-4 0  9995,2 52701  53.2180  41.2629 0001030  96.1839 263.9271 15.08846905 57053,6917.859,95.437,540.437,539.012,0.0
52701.0,STARLINK-4003,PAYLOAD,2023-05-23 23:49:07,15.08831673,0.0001034,53.2182,36.2079,108.9774,251.133,0.00017086,2.432e-05,0.0,0 STARLINK-4003,1 52701U 22053AX  23143.99244514  .00002432  00000-0  17086-3 0  9994,2 52701  53.2182  36.2079 0001034 108.9774 251.1330 15.08831673 56793,6917.906,95.438,540.486,539.056,0.0
52701.0,STARLINK-4003,PAYLOAD,2023-05-24 02:59:53,15.0882901,0.0001067,53.2181,35.613,105.3222,254.7888,0.00024271,3.576e-05,0.0,0 STARLINK-4003,1 52701U 22053AX  23144.12492597  .00003576  00000-0  24271-3 0  9990,2 52701  53.2181  35.6130 0001067 105.3222 254.7888 15.08829010 57248,6917.914,95.438,540.517,539.041,0.0
52701.0,STARLINK-4003,PAYLOAD,2023-05-25 21:55:18,15.0884193,9.85e-05,53.2182,27.5842,93.2296,266.8809,7.1706e-05,8.54e-06,0.0,0 STARLINK-4003,1 52701U 22053AX  23145.91340614  .00000854  00000-0  71706-4 0  9992,2 52701  53.2182  27.5842 0000985  93.2296 266.8809 15.08841930 57515,6917.874,95.437,540.421,539.058,0.0
52701.0,STARLINK-4003,PAYLOAD,2023-05-26 04:16:50,15.08845112,9.74e-05,53.2179,26.394,92.1969,267.9135,0.00010614,1.402e-05,0.0,0 STARLINK-4003,1 52701U 22053AX  23146.17836257  .00001402  00000-0  10614-3 0  9994,2 52701  53.2179  26.3940 0000974  92.1969 267.9135 15.08845112 57127,6917.865,95.437,540.404,539.056,0.0
52701.0,STARLINK-4003,PAYLOAD,2023-05-26 21:46:06,15.08831195,9.75e-05,53.2183,23.1239,80.5919,279.5183,-2.1958e-05,-6.37e-06,0.0,0 STARLINK-4003,1 52701U 22053AX  23146.90701964 -.00000637  00000-0 -21958-4 0  9996,2 52701  53.2183  23.1239 0000975  80.5919 279.5183 15.08831195 57662,6917.907,95.438,540.447,539.098,0.0
52701.0,STARLINK-4003,PAYLOAD,2023-05-27 00:56:52,15.08834782,9.63e-05,53.2183,22.529,87.8038,272.3064,9.4038e-06,-1.38e-06,0.0,0 STARLINK-4003,1 52701U 22053AX  23147.03949699 -.00000138  00000-0  94038-5 0  9995,2 52701  53.2183  22.5290 0000963  87.8038 272.3064 15.08834782 57250,6917.896,95.438,540.428,539.095,0.0
52701.0,STARLINK-4003,PAYLOAD,2023-05-27 20:01:29,15.08843823,9.47e-05,53.2185,18.9608,85.7933,274.3167,8.9048e-05,1.13e-05,0.0,0 STARLINK-4003,1 52701U 22053AX  23147.83437052  .00001130  00000-0  89048-4 0  9994,2 52701  53.2185  18.9608 0000947  85.7933 274.3167 15.08843823 57372,6917.869,95.437,540.389,539.079,0.0
52701.0,STARLINK-4003,PAYLOAD,2023-05-27 21:36:52,15.0884633,8.98e-05,53.2184,18.6623,106.5893,253.5198,0.00011187,1.493e-05,0.0,0 STARLINK-4003,1 52701U 22053AX  23147.90060790  .00001493  00000-0  11187-3 0  9993,2 52701  53.2184  18.6623 0000898 106.5893 253.5198 15.08846330 57815,6917.861,95.437,540.347,539.105,0.0
52701.0,STARLINK-4003,PAYLOAD,2023-05-28 21:27:39,15.08845346,7.78e-05,53.2181,14.2031,93.8496,266.2585,0.00016773,2.383e-05,0.0,0 STARLINK-4003,1 52701U 22053AX  23148.89420746  .00002383  00000-0  16773-3 0  9998,2 52701  53.2181  14.2031 0000778  93.8496 266.2585 15.08845346 57964,6917.864,95.437,540.267,539.191,0.0
52701.0,STARLINK-4003,PAYLOAD,2023-05-29 21:18:27,15.08841568,8.55e-05,53.2179,9.7431,79.7388,280.3701,2.096e-06,-2.54e-06,0.0,0 STARLINK-4003,1 52701U 22053AX  23149.88781366 -.00000254  00000-0  20960-5 0  9997,2 52701  53.2179   9.7431 0000855  79.7388 280.3701 15.08841568 58110,6917.876,95.437,540.332,539.149,0.0
52701.0,STARLINK-4003,PAYLOAD,2023-05-30 00:29:13,15.08842149,8.6e-05,53.218,9.1478,80.603,279.5059,-3.363e-06,-3.41e-06,0.0,0 STARLINK-4003,1 52701U 22053AX  23150.02029304 -.00000341  00000-0 -33630-5 0  9998,2 52701  53.2180   9.1478 0000860  80.6030 279.5059 15.08842149 57704,6917.874,95.437,540.334,539.144,0.0
52701.0,STARLINK-4003,PAYLOAD,2023-05-30 21:09:13,15.08848987,9.06e-05,53.2181,5.2825,81.6939,278.4156,2.9464e-05,1.81e-06,0.0,0 STARLINK-4003,1 52701U 22053AX  23150.88140543  .00000181  00000-0  29464-4 0  9990,2 52701  53.2181   5.2825 0000906  81.6939 278.4156 15.08848987 58262,6917.853,95.437,540.345,539.091,0.0
52701.0,STARLINK-4003,PAYLOAD,2023-05-31 14:38:28,15.08836837,9.64e-05,53.2182,2.0105,71.9221,288.1876,9.8239e-05,1.276e-05,0.0,0 STARLINK-4003,1 52701U 22053AX  23151.61005419  .00001276  00000-0  98239-4 0  9996,2 52701  53.2182   2.0105 0000964  71.9221 288.1876 15.08836837 58379,6917.89,95.438,540.422,539.088,0.0
52701.0,STARLINK-4003,PAYLOAD,2023-05-31 17:49:14,15.08836415,9.15e-05,53.2184,1.4155,84.4582,275.6515,9.2085e-05,1.178e-05,0.0,0 STARLINK-4003,1 52701U 22053AX  23151.74253455  .00001178  00000-0  92085-4 0  9999,2 52701  53.2184   1.4155 0000915  84.4582 275.6515 15.08836415 57961,6917.891,95.438,540.389,539.123,0.0
52701.0,STARLINK-4003,PAYLOAD,2023-05-31 21:00:00,15.08842805,9.09e-05,53.2183,0.8219,79.6859,280.4235,0.00012895,1.765e-05,0.0,0 STARLINK-4003,1 52701U 22053AX  23151.87501022  .00001765  00000-0  12895-3 0  9991,2 52701  53.2183   0.8219 0000909  79.6859 280.4235 15.08842805 58414,6917.872,95.437,540.366,539.108,0.0
52701.0,STARLINK-4003,PAYLOAD,2023-06-01 06:32:20,15.08837781,9.35e-05,53.2174,359.0356,75.741,284.3686,8.6111e-05,1.083e-05,0.0,0 STARLINK-4003,1 52701U 22053AX  23152.27245529  .00001083  00000-0  86111-4 0  9999,2 52701  53.2174 359.0356 0000935  75.7410 284.3686 15.08837781 58470,6917.887,95.438,540.399,539.105,0.0
52701.0,STARLINK-4003,PAYLOAD,2023-06-01 20:50:48,15.08839226,9.6e-05,53.216,356.359,81.0039,279.1061,2.6167e-05,1.29e-06,0.0,0 STARLINK-4003,1 52701U 22053AX  23152.86861315  .00000129  00000-0  26167-4 0  9996,2 52701  53.2160 356.3590 0000960  81.0039 279.1061 15.08839226 58138,6917.883,95.438,540.412,539.084,0.0
52701.0,STARLINK-4003,PAYLOAD,2023-06-02 20:41:35,15.08837551,8.02e-05,53.2168,351.9023,104.7827,255.3254,5.4292e-05,5.76e-06,0.0,0 STARLINK-4003,1 52701U 22053AX  23153.86221602  .00000576  00000-0  54292-4 0  9992,2 52701  53.2168 351.9023 0000802 104.7827 255.3254 15.08837551 58714,6917.888,95.438,540.308,539.198,0.0
52701.0,STARLINK-4003,PAYLOAD,2023-06-03 06:13:54,15.08839744,7.53e-05,53.2172,350.118,88.5251,271.5828,7.4822e-05,9.03e-06,0.0,0 STARLINK-4003,1 52701U 22053AX  23154.25965641  .00000903  00000-0  74822-4 0  9999,2 52701  53.2172 350.1180 0000753  88.5251 271.5828 15.08839744 58341,6917.881,95.438,540.267,539.225,0.0
